QZS-1R                  
1 49336U 21096A   24275.88626069 -.00000219  00000+0  00000+0 0  9999
2 49336  36.1647  88.9102 0744873 269.9838 106.4801  1.00286231 10756
